start=new Date('2022-08-31T00:00:00.000Z').valueOf();
sats=[{"CLASSIFICATION_TYPE":"U","ARG_OF_PERICENTER":"61.2528","PERIOD":"95.592","OBJECT_ID":"2021-017BD","OBJECT_NAME":"STARLINK-2196","SITE":"AFETR","TLE_LINE2":"2 47773  53.0537 240.3907 0001758  61.2528 298.8637 15.06407112 83565","OBJECT_TYPE":"PAYLOAD","COUNTRY_CODE":"US","RCS_SIZE":"LARGE","LAUNCH_DATE":"2021-03-04","PERIAPSIS":"545.974","MEAN_MOTION_DOT":"0.00001482","MEAN_ANOMALY":"298.8637","TIME_SYSTEM":"UTC","REV_AT_EPOCH":"8356","MEAN_MOTION":"15.06407112","ECCENTRICITY":"0.00017580","REF_FRAME":"TEME","TLE_LINE1":"1 47773U 21017BD  22242.42244339  .00001482  00000-0  11834-3 0  9997","APOAPSIS":"548.409","SEMIMAJOR_AXIS":"6925.327","EPOCH":"2022-08-30T10:08:19.108896","CENTER_NAME":"EARTH","EPHEMERIS_TYPE":"0","MEAN_MOTION_DDOT":"0.0000000000000","GP_ID":"211327436","RA_OF_ASC_NODE":"240.3907","MEAN_ELEMENT_THEORY":"SGP4","ELEMENT_SET_NO":"999","FILE":"3551880","DECAY_DATE":null,"BSTAR":"0.00011834000000","NORAD_CAT_ID":"47773","INCLINATION":"53.0537"},{"CENTER_NAME":"EARTH","MEAN_MOTION_DDOT":"0.0000000000000","GP_ID":"211333702","EPHEMERIS_TYPE":"0","MEAN_ELEMENT_THEORY":"SGP4","RA_OF_ASC_NODE":"240.4146","DECAY_DATE":null,"FILE":"3551980","ELEMENT_SET_NO":"999","NORAD_CAT_ID":"47774","BSTAR":"0.00010889000000","INCLINATION":"53.0528","REF_FRAME":"TEME","TLE_LINE1":"1 47774U 21017BE  22242.41875182  .00001341  00000-0  10889-3 0  9996","APOAPSIS":"548.404","SEMIMAJOR_AXIS":"6925.330","EPOCH":"2022-08-30T10:03:00.157248","TIME_SYSTEM":"UTC","REV_AT_EPOCH":"8293","MEAN_MOTION":"15.06405972","ECCENTRICITY":"0.00017450","CLASSIFICATION_TYPE":"U","OBJECT_ID":"2021-017BE","OBJECT_NAME":"STARLINK-2197","PERIOD":"95.592","ARG_OF_PERICENTER":"66.9766","SITE":"AFETR","TLE_LINE2":"2 47774  53.0528 240.4146 0001745  66.9766 293.1407 15.06405972 82939","OBJECT_TYPE":"PAYLOAD","COUNTRY_CODE":"US","LAUNCH_DATE":"2021-03-04","MEAN_MOTION_DOT":"0.00001341","PERIAPSIS":"545.987","RCS_SIZE":"LARGE","MEAN_ANOMALY":"293.1407"},{"MEAN_MOTION":"15.06388261","ECCENTRICITY":"0.00016970","TIME_SYSTEM":"UTC","REV_AT_EPOCH":"8368","OBJECT_TYPE":"PAYLOAD","COUNTRY_CODE":"US","MEAN_MOTION_DOT":"-0.00000052","LAUNCH_DATE":"2021-03-04","PERIAPSIS":"546.074","RCS_SIZE":"LARGE","MEAN_ANOMALY":"290.6379","CLASSIFICATION_TYPE":"U","OBJECT_ID":"2021-017BF","OBJECT_NAME":"STARLINK-2198","ARG_OF_PERICENTER":"69.4792","PERIOD":"95.593","SITE":"AFETR","TLE_LINE2":"2 47775  53.0539 238.5648 0001697  69.4792 290.6379 15.06388261 83684","FILE":"3552179","DECAY_DATE":null,"ELEMENT_SET_NO":"999","BSTAR":"0.00001543300000","NORAD_CAT_ID":"47775","INCLINATION":"53.0539","CENTER_NAME":"EARTH","MEAN_MOTION_DDOT":"0.0000000000000","GP_ID":"211360643","EPHEMERIS_TYPE":"0","RA_OF_ASC_NODE":"238.5648","MEAN_ELEMENT_THEORY":"SGP4","APOAPSIS":"548.425","SEMIMAJOR_AXIS":"6925.385","EPOCH":"2022-08-30T19:52:10.178976","REF_FRAME":"TEME","TLE_LINE1":"1 47775U 21017BF  22242.82789559 -.00000052  00000-0  15433-4 0  9994"},{"REF_FRAME":"TEME","TLE_LINE1":"1 47776U 21017BG  22242.32384856 -.00000521  00000-0 -16101-4 0  9996","APOAPSIS":"548.278","SEMIMAJOR_AXIS":"6925.366","EPOCH":"2022-08-30T07:46:20.515584","CENTER_NAME":"EARTH","EPHEMERIS_TYPE":"0","GP_ID":"211328680","MEAN_MOTION_DDOT":"0.0000000000000","RA_OF_ASC_NODE":"230.8338","MEAN_ELEMENT_THEORY":"SGP4","ELEMENT_SET_NO":"999","FILE":"3551880","DECAY_DATE":null,"NORAD_CAT_ID":"47776","BSTAR":"-0.00001610100000","INCLINATION":"53.0546","CLASSIFICATION_TYPE":"U","ARG_OF_PERICENTER":"64.3908","PERIOD":"95.592","OBJECT_ID":"2021-017BG","OBJECT_NAME":"STARLINK-2209","SITE":"AFETR","TLE_LINE2":"2 47776  53.0546 230.8338 0001512  64.3908 295.7237 15.06394333 83713","OBJECT_TYPE":"PAYLOAD","COUNTRY_CODE":"US","RCS_SIZE":"LARGE","LAUNCH_DATE":"2021-03-04","MEAN_MOTION_DOT":"-0.00000521","PERIAPSIS":"546.184","MEAN_ANOMALY":"295.7237","TIME_SYSTEM":"UTC","REV_AT_EPOCH":"8371","MEAN_MOTION":"15.06394333","ECCENTRICITY":"0.00015120"},{"TLE_LINE2":"2 47777  53.0527 230.5263 0001808  54.3701 305.7456 15.06392851 83724","SITE":"AFETR","OBJECT_NAME":"STARLINK-2210","OBJECT_ID":"2021-017BH","ARG_OF_PERICENTER":"54.3701","PERIOD":"95.593","CLASSIFICATION_TYPE":"U","MEAN_ANOMALY":"305.7456","PERIAPSIS":"545.983","LAUNCH_DATE":"2021-03-04","MEAN_MOTION_DOT":"-0.00000231","RCS_SIZE":"LARGE","COUNTRY_CODE":"US","OBJECT_TYPE":"PAYLOAD","REV_AT_EPOCH":"8372","TIME_SYSTEM":"UTC","ECCENTRICITY":"0.00018080","MEAN_MOTION":"15.06392851","TLE_LINE1":"1 47777U 21017BH  22242.39387385 -.00000231  00000-0  34292-5 0  9993","REF_FRAME":"TEME","EPOCH":"2022-08-30T09:27:10.700640","SEMIMAJOR_AXIS":"6925.370","APOAPSIS":"548.488","RA_OF_ASC_NODE":"230.5263","MEAN_ELEMENT_THEORY":"SGP4","MEAN_MOTION_DDOT":"0.0000000000000","GP_ID":"211327937","EPHEMERIS_TYPE":"0","CENTER_NAME":"EARTH","INCLINATION":"53.0527","NORAD_CAT_ID":"47777","BSTAR":"0.00000342920000","DECAY_DATE":null,"FILE":"3551880","ELEMENT_SET_NO":"999"},{"ECCENTRICITY":"0.00015120","MEAN_MOTION":"15.06395989","REV_AT_EPOCH":"8376","TIME_SYSTEM":"UTC","MEAN_ANOMALY":"284.5154","RCS_SIZE":"LARGE","PERIAPSIS":"546.179","LAUNCH_DATE":"2021-03-04","MEAN_MOTION_DOT":"-0.00000088","COUNTRY_CODE":"US","OBJECT_TYPE":"PAYLOAD","TLE_LINE2":"2 47778  53.0542 229.1713 0001512  75.6002 284.5154 15.06395989 83766","SITE":"AFETR","PERIOD":"95.592","ARG_OF_PERICENTER":"75.6002","OBJECT_NAME":"STARLINK-2211","OBJECT_ID":"2021-017BJ","CLASSIFICATION_TYPE":"U","INCLINATION":"53.0542","NORAD_CAT_ID":"47778","BSTAR":"0.00001297800000","ELEMENT_SET_NO":"999","DECAY_DATE":null,"FILE":"3552179","RA_OF_ASC_NODE":"229.1713","MEAN_ELEMENT_THEORY":"SGP4","EPHEMERIS_TYPE":"0","MEAN_MOTION_DDOT":"0.0000000000000","GP_ID":"211360393","CENTER_NAME":"EARTH","EPOCH":"2022-08-30T16:37:06.910176","SEMIMAJOR_AXIS":"6925.361","APOAPSIS":"548.273","TLE_LINE1":"1 47778U 21017BJ  22242.69244109 -.00000088  00000-0  12978-4 0  9999","REF_FRAME":"TEME"},{"TLE_LINE1":"1 47779U 21017BK  22242.74954428  .00000695  00000-0  56612-4 0  9994","REF_FRAME":"TEME","SEMIMAJOR_AXIS":"6907.127","EPOCH":"2022-08-30T17:59:20.625792","APOAPSIS":"530.224","MEAN_ELEMENT_THEORY":"SGP4","RA_OF_ASC_NODE":"214.7499","CENTER_NAME":"EARTH","MEAN_MOTION_DDOT":"0.0000000000000","GP_ID":"211360143","EPHEMERIS_TYPE":"0","NORAD_CAT_ID":"47779","BSTAR":"0.00005661200000","INCLINATION":"53.0556","DECAY_DATE":null,"FILE":"3552179","ELEMENT_SET_NO":"999","SITE":"AFETR","TLE_LINE2":"2 47779  53.0556 214.7499 0001784  60.3732 299.7437 15.12365040 83983","CLASSIFICATION_TYPE":"U","OBJECT_NAME":"STARLINK-2212","OBJECT_ID":"2021-017BK","ARG_OF_PERICENTER":"60.3732","PERIOD":"95.215","LAUNCH_DATE":"2021-03-04","MEAN_MOTION_DOT":"0.00000695","PERIAPSIS":"527.759","RCS_SIZE":"LARGE","MEAN_ANOMALY":"299.7437","OBJECT_TYPE":"PAYLOAD","COUNTRY_CODE":"US","REV_AT_EPOCH":"8398","TIME_SYSTEM":"UTC","ECCENTRICITY":"0.00017840","MEAN_MOTION":"15.12365040"},{"TIME_SYSTEM":"UTC","REV_AT_EPOCH":"8375","MEAN_MOTION":"15.06392558","ECCENTRICITY":"0.00015650","OBJECT_NAME":"STARLINK-2213","OBJECT_ID":"2021-017BL","PERIOD":"95.593","ARG_OF_PERICENTER":"68.6999","CLASSIFICATION_TYPE":"U","TLE_LINE2":"2 47780  53.0546 230.5341 0001565  68.6999 291.4157 15.06392558 83759","SITE":"AFETR","COUNTRY_CODE":"US","OBJECT_TYPE":"PAYLOAD","MEAN_ANOMALY":"291.4157","LAUNCH_DATE":"2021-03-04","MEAN_MOTION_DOT":"-0.00000559","PERIAPSIS":"546.153","RCS_SIZE":"LARGE","MEAN_MOTION_DDOT":"0.0000000000000","GP_ID":"211329181","EPHEMERIS_TYPE":"0","CENTER_NAME":"EARTH","MEAN_ELEMENT_THEORY":"SGP4","RA_OF_ASC_NODE":"230.5341","FILE":"3551880","DECAY_DATE":null,"ELEMENT_SET_NO":"999","INCLINATION":"53.0546","BSTAR":"-0.00001865800000","NORAD_CAT_ID":"47780","REF_FRAME":"TEME","TLE_LINE1":"1 47780U 21017BL  22242.38650703 -.00000559  00000-0 -18658-4 0  9994","APOAPSIS":"548.320","EPOCH":"2022-08-30T09:16:34.207392","SEMIMAJOR_AXIS":"6925.371"},{"TIME_SYSTEM":"UTC","REV_AT_EPOCH":"8375","MEAN_MOTION":"15.06391021","ECCENTRICITY":"0.00015880","CLASSIFICATION_TYPE":"U","ARG_OF_PERICENTER":"71.7825","PERIOD":"95.593","OBJECT_ID":"2021-017BM","OBJECT_NAME":"STARLINK-2223","SITE":"AFETR","TLE_LINE2":"2 47781  53.0547 229.1947 0001588  71.7825 288.3337 15.06391021 83754","OBJECT_TYPE":"PAYLOAD","COUNTRY_CODE":"US","RCS_SIZE":"LARGE","LAUNCH_DATE":"2021-03-04","PERIAPSIS":"546.141","MEAN_MOTION_DOT":"-0.00000276","MEAN_ANOMALY":"288.3337","CENTER_NAME":"EARTH","EPHEMERIS_TYPE":"0","GP_ID":"211359642","MEAN_MOTION_DDOT":"0.0000000000000","MEAN_ELEMENT_THEORY":"SGP4","RA_OF_ASC_NODE":"229.1947","ELEMENT_SET_NO":"999","FILE":"3552179","DECAY_DATE":null,"NORAD_CAT_ID":"47781","BSTAR":"0.00000033688000","INCLINATION":"53.0547","REF_FRAME":"TEME","TLE_LINE1":"1 47781U 21017BM  22242.68506743 -.00000276  00000-0  33688-6 0  9999","APOAPSIS":"548.341","SEMIMAJOR_AXIS":"6925.376","EPOCH":"2022-08-30T16:26:29.825952"},{"EPOCH":"2022-08-30T12:06:25.081344","SEMIMAJOR_AXIS":"6925.345","APOAPSIS":"548.329","TLE_LINE1":"1 47787U 21018A   22242.50445696  .00001268  00000-0  10400-3 0  9991","REF_FRAME":"TEME","INCLINATION":"53.0540","BSTAR":"0.00010400000000","NORAD_CAT_ID":"47787","ELEMENT_SET_NO":"999","DECAY_DATE":null,"FILE":"3551880","RA_OF_ASC_NODE":"270.0156","MEAN_ELEMENT_THEORY":"SGP4","EPHEMERIS_TYPE":"0","MEAN_MOTION_DDOT":"0.0000000000000","GP_ID":"211327687","CENTER_NAME":"EARTH","MEAN_ANOMALY":"284.0597","RCS_SIZE":"LARGE","MEAN_MOTION_DOT":"0.00001268","LAUNCH_DATE":"2021-03-11","PERIAPSIS":"546.091","COUNTRY_CODE":"US","OBJECT_TYPE":"PAYLOAD","TLE_LINE2":"2 47787  53.0540 270.0156 0001616  76.0572 284.0597 15.06401192 82581","SITE":"AFETR","ARG_OF_PERICENTER":"76.0572","PERIOD":"95.592","OBJECT_ID":"2021-018A","OBJECT_NAME":"STARLINK-2257","CLASSIFICATION_TYPE":"U","ECCENTRICITY":"0.00016160","MEAN_MOTION":"15.06401192","REV_AT_EPOCH":"8258","TIME_SYSTEM":"UTC"}];
